FLOCK 4BE-27            
1 60513U 24149AX  26195.97053873  .00005817  00000+0  17417-3 0  9993
2 60513  97.3825 277.8425 0003951 181.7935 178.3295 15.34915043106409
FLOCK 4BE-9             
1 60514U 24149AY  26195.81379095  .00009847  00000+0  23617-3 0  9990
2 60514  97.3795 280.3674 0003675 172.2944 187.8360 15.41590120106578
FLOCK 4BE-6             
1 60516U 24149BA  26195.86496388  .00008677  00000+0  21734-3 0  9990
2 60516  97.3792 279.7241 0004210 173.8234 186.3065 15.40309520106537
FLOCK 4BE-14            
1 60517U 24149BB  26195.75731423  .00010043  00000+0  23874-3 0  9998
2 60517  97.3695 279.7787 0005439 178.1832 181.9436 15.41845157106570
FLOCK 4BE-1             
1 60518U 24149BC  26195.22550700  .00011418  00000+0  25667-3 0  9997
2 60518  97.3783 280.6171 0004979 179.2979 180.8277 15.43488673106545
FLOCK 4BE-28            
1 60519U 24149BD  26195.78005855  .00027939  00000+0  56785-3 0  9995
2 60519  97.3749 281.9929 0005134 176.4962 183.6324 15.46268977106706
IPERDRONE.0             
1 60520U 24149BE  26195.79777037  .00063346  00000+0  50418-3 0  9995
2 60520  97.3775 290.4597 0004041 168.6272 191.5083 15.71009151107241
TRANSPORTER-11 OBJECT BF
1 60521U 24149BF  26195.80733226  .00866307  42652-3  94229-3 0  9999
2 60521  97.3807 294.3079 0010686 248.3965 111.6180 16.09835355107485
CONNECTA IOT-2          
1 60522U 24149BG  26195.95217977  .00002464  00000+0  10404-3 0  9992
2 60522  97.3837 273.6796 0005548 213.7391 146.3494 15.24193170106126
CONNECTA IOT-4          
1 60524U 24149BJ  26195.77506314  .00012697  00000+0  28829-3 0  9999
2 60524  97.3802 280.4900 0005951 176.4028 183.7263 15.43158838106585
ORESAT0.5               
1 60525U 24149BK  26195.76310310  .00012077  00000+0  24840-3 0  9999
2 60525  97.3732 282.2041 0006141 166.1469 193.9950 15.46096628106735
DEIMOS                  
1 60526U 24149BL  26195.48730350  .00011944  00000+0  25353-3 0  9991
2 60526  97.3786 282.0500 0005892 172.6281 187.5056 15.45174801106666
CUAVA-2                 
1 60527U 24149BM  26195.76263954  .00007321  00000+0  20621-3 0  9991
2 60527  97.3723 277.3393 0006725 181.2458 178.8770 15.36727604106406
ERNST                   
1 60528U 24149BN  26195.72802918  .00007803  00000+0  19833-3 0  9995
2 60528  97.3806 279.6674 0006138 180.9923 179.1312 15.39887588106516
TORO                    
1 60530U 24149BQ  26195.72143070  .00000438  00000+0  43567-4 0  9994
2 60530  97.6778 269.8754 0001152  98.4022 261.7330 14.96515969104074
HYPSO-2                 
1 60531U 24149BR  26195.17136707  .00001696  00000+0  14507-3 0  9991
2 60531  97.6841 271.0399 0001840  99.0678 261.0753 14.98931175104091
LEMU NGE                
1 60532U 24149BS  26195.76064993  .00001390  00000+0  13210-3 0  9995
2 60532  97.6837 270.1632 0000603  85.3588 274.7702 14.95059405104078
LEMUR-2-STELLA          
1 60533U 24149BT  26195.80908741  .00005629  00000+0  32835-3 0  9992
2 60533  97.6739 278.3948 0001238 117.0060 243.1297 15.12366864104678
SATELIOT_2              
1 60534U 24149BU  26195.77657555  .00000635  00000+0  60977-4 0  9994
2 60534  97.6825 270.2298 0001602  76.4393 283.7007 14.96458781104092
NIGHTJAR                
1 60535U 24149BV  26195.89287416  .00002234  00000+0  18838-3 0  9998
2 60535  97.6839 272.2110 0002615  96.7974 263.3547 14.99168053147024
LEMUR-2-MARHISYAM       
1 60536U 24149BW  26195.79984777  .00005421  00000+0  32156-3 0  9992
2 60536  97.6884 278.8613 0002535  69.4744 290.6758 15.11772815104659
SATELIOT_4              
1 60537U 24149BX  26195.78181173  .00000350  00000+0  35625-4 0  9992
2 60537  97.6732 269.7434 0001079 349.2095  10.9104 14.96758518104106
PICO-02A021             
1 60538U 24149BY  26195.45535481  .00001949  00000+0  14754-3 0  9996
2 60538  97.6740 274.0557 0003505 283.7091  76.3744 15.03485296103839
ICEYE-X43               
1 60539U 24149BZ  26195.78458951  .00000811  00000+0  70364-4 0  9996
2 60539  97.6800 272.3796 0006589 349.7264  10.3824 14.99785896104250
HAWK-10A                
1 60540U 24149CA  26195.78347752  .00000233  00000+0  25495-4 0  9997
2 60540  97.6891 271.2208 0003144   5.1322 354.9932 14.96592150104118
UMBRA-09                
1 60541U 24149CB  26195.81056535  .00008741  00000+0  42286-3 0  9996
2 60541  97.6976 283.5044 0001976 203.4404 156.6740 15.18841975104911
QPS-SAR-8 (AMATERU-IV)  
1 60542U 24149CC  26195.79907658  .00002147  00000+0  15818-3 0  9990
2 60542  97.6663 274.7210 0003820  46.4789 313.6754 15.04393895104427
ARCTIC WEATHER SATELLITE
1 60543U 24149CD  26195.75828763  .00000407  00000+0  48036-4 0  9992
2 60543  97.6792 265.4342 0002821  50.7561 309.3907 14.89803279103403
CAPELLA-15 (ACADIA-5)   
1 60544U 24149CE  26195.74503734  .00002282  00000+0  22825-3 0  9990
2 60544  97.6766 267.9581 0003350 340.0098  20.0990 14.92404933103963
HAWK-10B                
1 60545U 24149CF  26195.78334035  .00000204  00000+0  22895-4 0  9991
2 60545  97.6810 270.5479 0005508  16.0054 344.1341 14.96591022104117
