OBJECT_NAME,OBJECT_ID,EPOCH,MEAN_MOTION,ECCENTRICITY,INCLINATION,RA_OF_ASC_NODE,ARG_OF_PERICENTER,MEAN_ANOMALY,EPHEMERIS_TYPE,CLASSIFICATION_TYPE,NORAD_CAT_ID,ELEMENT_SET_NO,REV_AT_EPOCH,BSTAR,MEAN_MOTION_DOT,MEAN_MOTION_DDOT
FLOCK 4BE-27,2024-149AX,2026-07-14T23:17:34.546272,15.34915043,.00039519,97.3825,277.8425,181.7935,178.3295,0,U,60513,999,10640,.17416909E-3,.5817E-4,0
FLOCK 4BE-9,2024-149AY,2026-07-14T19:31:51.538080,15.41590120,.00036753,97.3795,280.3674,172.2944,187.8360,0,U,60514,999,10657,.23617487E-3,.9847E-4,0
FLOCK 4BE-6,2024-149BA,2026-07-14T20:45:32.879232,15.40309520,.00042107,97.3792,279.7241,173.8234,186.3065,0,U,60516,999,10653,.21733863E-3,.8677E-4,0
FLOCK 4BE-14,2024-149BB,2026-07-14T18:10:31.949472,15.41845157,.0005439,97.3695,279.7787,178.1832,181.9436,0,U,60517,999,10657,.23874405E-3,.10043E-3,0
FLOCK 4BE-1,2024-149BC,2026-07-14T05:24:43.804800,15.43488673,.00049796,97.3783,280.6171,179.2979,180.8277,0,U,60518,999,10654,.25666723E-3,.11418E-3,0
FLOCK 4BE-28,2024-149BD,2026-07-14T18:43:17.058720,15.46268977,.00051343,97.3749,281.9929,176.4962,183.6324,0,U,60519,999,10670,.56785099E-3,.27939E-3,0
IPERDRONE.0,2024-149BE,2026-07-14T19:08:47.359968,15.71009151,.0004041,97.3775,290.4597,168.6272,191.5083,0,U,60520,999,10724,.50418245E-3,.63346E-3,0
TRANSPORTER-11 OBJECT BF,2024-149BF,2026-07-14T19:22:33.507264,16.09835355,.00106867,97.3807,294.3079,248.3965,111.6180,0,U,60521,999,10748,.9422942E-3,.866307E-2,.42652438E-3
CONNECTA IOT-2,2024-149BG,2026-07-14T22:51:08.332128,15.24193170,.00055483,97.3837,273.6796,213.7391,146.3494,0,U,60522,999,10612,.10403617E-3,.2464E-4,0
CONNECTA IOT-4,2024-149BJ,2026-07-14T18:36:05.455296,15.43158838,.00059511,97.3802,280.4900,176.4028,183.7263,0,U,60524,999,10658,.28828941E-3,.12697E-3,0
ORESAT0.5,2024-149BK,2026-07-14T18:18:52.107840,15.46096628,.00061414,97.3732,282.2041,166.1469,193.9950,0,U,60525,999,10673,.24840482E-3,.12077E-3,0
DEIMOS,2024-149BL,2026-07-14T11:41:43.022400,15.45174801,.00058928,97.3786,282.0500,172.6281,187.5056,0,U,60526,999,10666,.2535312E-3,.11944E-3,0
CUAVA-2,2024-149BM,2026-07-14T18:18:12.056256,15.36727604,.00067252,97.3723,277.3393,181.2458,178.8770,0,U,60527,999,10640,.2062076E-3,.7321E-4,0
ERNST,2024-149BN,2026-07-14T17:28:21.721152,15.39887588,.00061387,97.3806,279.6674,180.9923,179.1312,0,U,60528,999,10651,.19832646E-3,.7803E-4,0
TORO,2024-149BQ,2026-07-14T17:18:51.612480,14.96515969,.00011526,97.6778,269.8754,98.4022,261.7330,0,U,60530,999,10407,.43567108E-4,.438E-5,0
HYPSO-2,2024-149BR,2026-07-14T04:06:46.114848,14.98931175,.00018406,97.6841,271.0399,99.0678,261.0753,0,U,60531,999,10409,.14506712E-3,.1696E-4,0
LEMU NGE,2024-149BS,2026-07-14T18:15:20.153952,14.95059405,.00006031,97.6837,270.1632,85.3588,274.7702,0,U,60532,999,10407,.13210127E-3,.139E-4,0
LEMUR-2-STELLA,2024-149BT,2026-07-14T19:25:05.152224,15.12366864,.00012381,97.6739,278.3948,117.0060,243.1297,0,U,60533,999,10467,.32835338E-3,.5629E-4,0
SATELIOT_2,2024-149BU,2026-07-14T18:38:16.127520,14.96458781,.0001602,97.6825,270.2298,76.4393,283.7007,0,U,60534,999,10409,.60976938E-4,.635E-5,0
NIGHTJAR,2024-149BV,2026-07-14T21:25:44.327424,14.99168053,.00026159,97.6839,272.2110,96.7974,263.3547,0,U,60535,999,14702,.18837904E-3,.2234E-4,0
LEMUR-2-MARHISYAM,2024-149BW,2026-07-14T19:11:46.847328,15.11772815,.00025357,97.6884,278.8613,69.4744,290.6758,0,U,60536,999,10465,.32155766E-3,.5421E-4,0
SATELIOT_4,2024-149BX,2026-07-14T18:45:48.533472,14.96758518,.00010795,97.6732,269.7434,349.2095,10.9104,0,U,60537,999,10410,.35624909E-4,.35E-5,0
PICO-02A021,2024-149BY,2026-07-14T10:55:42.655584,15.03485296,.00035054,97.6740,274.0557,283.7091,76.3744,0,U,60538,999,10383,.1475356E-3,.1949E-4,0
ICEYE-X43,2024-149BZ,2026-07-14T18:49:48.533664,14.99785896,.00065895,97.6800,272.3796,349.7264,10.3824,0,U,60539,999,10425,.70364235E-4,.811E-5,0
HAWK-10A,2024-149CA,2026-07-14T18:48:12.457728,14.96592150,.00031442,97.6891,271.2208,5.1322,354.9932,0,U,60540,999,10411,.25494959E-4,.233E-5,0
UMBRA-09,2024-149CB,2026-07-14T19:27:12.846240,15.18841975,.00019761,97.6976,283.5044,203.4404,156.6740,0,U,60541,999,10491,.42286202E-3,.8741E-4,0
QPS-SAR-8 (AMATERU-IV),2024-149CC,2026-07-14T19:10:40.216512,15.04393895,.00038205,97.6663,274.7210,46.4789,313.6754,0,U,60542,999,10442,.15817907E-3,.2147E-4,0
ARCTIC WEATHER SATELLITE,2024-149CD,2026-07-14T18:11:56.051232,14.89803279,.00028218,97.6792,265.4342,50.7561,309.3907,0,U,60543,999,10340,.48036457E-4,.407E-5,0
CAPELLA-15 (ACADIA-5),2024-149CE,2026-07-14T17:52:51.226176,14.92404933,.00033501,97.6766,267.9581,340.0098,20.0990,0,U,60544,999,10396,.22824696E-3,.2282E-4,0
HAWK-10B,2024-149CF,2026-07-14T18:48:00.606240,14.96591022,.0005508,97.6810,270.5479,16.0054,344.1341,0,U,60545,999,10411,.22895288E-4,.204E-5,0
